{
    "links": {
        "self": "http://www.neowsapp.com/rest/v1/neo/3826711?api_key=iIulBulltgU6a56xZRHN4H3l9WmuAYTsLGpBGhQ2"
    },
    "id": "3826711",
    "neo_reference_id": "3826711",
    "name": "(2018 PC20)",
    "designation": "2018 PC20",
    "nasa_jpl_url": "http://ssd.jpl.nasa.gov/sbdb.cgi?sstr=3826711",
    "absolute_magnitude_h": 25.2,
    "estimated_diameter": {
        "kilometers": {
            "estimated_diameter_min": 0.0242412481,
            "estimated_diameter_max": 0.0542050786
        },
        "meters": {
            "estimated_diameter_min": 24.2412481101,
            "estimated_diameter_max": 54.2050786336
        },
        "miles": {
            "estimated_diameter_min": 0.0150628086,
            "estimated_diameter_max": 0.0336814639
        },
        "feet": {
            "estimated_diameter_min": 79.5316564495,
            "estimated_diameter_max": 177.8381901842
        }
    },
    "is_potentially_hazardous_asteroid": false,
    "close_approach_data": [
        {
            "close_approach_date": "2018-08-06",
            "close_approach_date_full": "2018-Aug-06 20:57",
            "epoch_date_close_approach": 1533589020000,
            "relative_velocity": {
                "kilometers_per_second": "8.038387156",
                "kilometers_per_hour": "28938.1937615159",
                "miles_per_hour": "17981.0682292041"
            },
            "miss_distance": {
                "astronomical": "0.0285919033",
                "lunar": "11.1222503837",
                "kilometers": "4277287.832925971",
                "miles": "2657783.4163255598"
            },
            "orbiting_body": "Earth"
        }
    ],
    "orbital_data": {
        "orbit_id": "3",
        "orbit_determination_date": "2018-09-03 06:52:36",
        "first_observation_date": "2018-08-10",
        "last_observation_date": "2018-09-02",
        "data_arc_in_days": 23,
        "observations_used": 52,
        "orbit_uncertainty": "7",
        "minimum_orbit_intersection": ".0283881",
        "jupiter_tisserand_invariant": "4.081",
        "epoch_osculation": "2459000.5",
        "eccentricity": ".4041976430949596",
        "semi_major_axis": "1.708786688968096",
        "inclination": "8.983864552206848",
        "ascending_node_longitude": "139.2836465673877",
        "orbital_period": "815.8873607401227",
        "perihelion_distance": "1.018099136735152",
        "perihelion_argument": "153.5968695620768",
        "aphelion_distance": "2.39947424120104",
        "perihelion_time": "2459134.732385562348",
        "mean_anomaly": "300.7716541182731",
        "mean_motion": ".4412373782496523",
        "equinox": "J2000",
        "orbit_class": {
            "orbit_class_type": "AMO",
            "orbit_class_description": "Near-Earth asteroid orbits similar to that of 1221 Amor",
            "orbit_class_range": "1.017 AU < q (perihelion) < 1.3 AU"
        }
    },
    "is_sentry_object": false
}